{
  "type": "Feature",
  "properties": {
    "source_file": "parcel_05_boundary.csv"
  },
  "geometry": {
    "type": "Polygon",
    "coordinates": [
      [
        [
          25.918994923806906,
          35.1716569778524
        ],
        [
          25.91913036495479,
          35.171598935753785
        ],
        [
          25.919225451184655,
          35.17158038963916
        ],
        [
          25.919251650077914,
          35.17154589604547
        ],
        [
          25.919348143123216,
          35.17139570204623
        ],
        [
          25.919383666663133,
          35.17126279228568
        ],
        [
          25.919393449484947,
          35.17116518027091
        ],
        [
          25.91935286824255,
          35.171096945462125
        ],
        [
          25.919305612263216,
          35.17106704191388
        ],
        [
          25.91922445401684,
          35.17107554051392
        ],
        [
          25.91915823882302,
          35.17122931153794
        ],
        [
          25.91904202737551,
          35.17140010261932
        ],
        [
          25.91897129198997,
          35.1714690196788
        ],
        [
          25.91881327089575,
          35.17155203154538
        ],
        [
          25.918789881193913,
          35.171561237288486
        ],
        [
          25.918824360207587,
          35.17165481222293
        ],
        [
          25.918832138823294,
          35.171742860025695
        ],
        [
          25.918994923806906,
          35.1716569778524
        ]
      ]
    ]
  }
}