{
  "type": "Feature",
  "properties": {
    "source_file": "parcel_10_boundary.csv"
  },
  "geometry": {
    "type": "Polygon",
    "coordinates": [
      [
        [
          25.919188409629186,
          35.1629316434912
        ],
        [
          25.919442652093004,
          35.162870185951846
        ],
        [
          25.919462780870237,
          35.162862474266355
        ],
        [
          25.91954463310483,
          35.16284648180113
        ],
        [
          25.919571690894152,
          35.162843979396584
        ],
        [
          25.919611346421828,
          35.162723535461296
        ],
        [
          25.919647112821377,
          35.16263380570622
        ],
        [
          25.91940687134958,
          35.16268837033672
        ],
        [
          25.919380439701204,
          35.16260539625372
        ],
        [
          25.91928425597553,
          35.16233853037393
        ],
        [
          25.91928029450741,
          35.16231010430713
        ],
        [
          25.919276346885557,
          35.16229628306113
        ],
        [
          25.91893945114519,
          35.162194698037645
        ],
        [
          25.91882734199807,
          35.16215175758895
        ],
        [
          25.918622217283755,
          35.162243088280455
        ],
        [
          25.918550022078623,
          35.16224955106316
        ],
        [
          25.918413838729776,
          35.16231743095396
        ],
        [
          25.918468106313426,
          35.162435755712345
        ],
        [
          25.918550166960234,
          35.16262026440932
        ],
        [
          25.91859118926572,
          35.162730865316306
        ],
        [
          25.918682662052714,
          35.16284400269075
        ],
        [
          25.918712138317627,
          35.162981832833935
        ],
        [
          25.918748676091557,
          35.16297629547971
        ],
        [
          25.91885417102631,
          35.162975976423894
        ],
        [
          25.918925224220775,
          35.16295826222356
        ],
        [
          25.918984084285707,
          35.162954264363854
        ],
        [
          25.91907706772806,
          35.162944767279214
        ],
        [
          25.919119485367048,
          35.16294184128137
        ],
        [
          25.919188409629186,
          35.1629316434912
        ]
      ]
    ]
  }
}