{
  "type": "Feature",
  "properties": {
    "source_file": "parcel_06_boundary.csv"
  },
  "geometry": {
    "type": "Polygon",
    "coordinates": [
      [
        [
          25.916939725769115,
          35.17144007057192
        ],
        [
          25.916813722915315,
          35.171474610833535
        ],
        [
          25.91684944159313,
          35.171508845092205
        ],
        [
          25.916931711225494,
          35.1716178017824
        ],
        [
          25.916976339754232,
          35.17166208242002
        ],
        [
          25.916990514866654,
          35.17169530534472
        ],
        [
          25.917041588101412,
          35.17164464141823
        ],
        [
          25.91708648677038,
          35.17161625322218
        ],
        [
          25.917142593661143,
          35.171597604564695
        ],
        [
          25.917189168660133,
          35.17161255410007
        ],
        [
          25.91724890801332,
          35.171594298658576
        ],
        [
          25.917395289002183,
          35.17152048855823
        ],
        [
          25.91719948982144,
          35.17129928416978
        ],
        [
          25.916939725769115,
          35.17144007057192
        ]
      ]
    ]
  }
}