{
  "type": "Feature",
  "properties": {
    "source_file": "parcel_02_boundary.csv"
  },
  "geometry": {
    "type": "Polygon",
    "coordinates": [
      [
        [
          25.923546566405783,
          35.168182878923474
        ],
        [
          25.92358118970135,
          35.16825445251471
        ],
        [
          25.923553359692267,
          35.16847126514768
        ],
        [
          25.924044571064506,
          35.16830839641138
        ],
        [
          25.924060528189425,
          35.16819815451559
        ],
        [
          25.924053116625068,
          35.168144540241066
        ],
        [
          25.924056296136534,
          35.1681070756471
        ],
        [
          25.92404979140865,
          35.16807796896316
        ],
        [
          25.924006401772385,
          35.168030425700934
        ],
        [
          25.923546566405783,
          35.168182878923474
        ]
      ]
    ]
  }
}