{
  "type": "Feature",
  "properties": {
    "source_file": "parcel_04_boundary.csv"
  },
  "geometry": {
    "type": "Polygon",
    "coordinates": [
      [
        [
          25.91948146115175,
          35.17146688453442
        ],
        [
          25.91958486814372,
          35.171433330769375
        ],
        [
          25.919673228950565,
          35.17140894072041
        ],
        [
          25.91977888600904,
          35.1714010451392
        ],
        [
          25.919815144357337,
          35.1713928072064
        ],
        [
          25.919905735796917,
          35.17138857622086
        ],
        [
          25.920012729703707,
          35.17136749669405
        ],
        [
          25.920126790810702,
          35.171376146135756
        ],
        [
          25.920127001269666,
          35.17128238218594
        ],
        [
          25.9199236391852,
          35.170991973458015
        ],
        [
          25.919759514985863,
          35.17083401030347
        ],
        [
          25.919504291628783,
          35.170555872551574
        ],
        [
          25.919268609200014,
          35.17058584294637
        ],
        [
          25.918938096604588,
          35.17052842327732
        ],
        [
          25.91840797674296,
          35.17069522369345
        ],
        [
          25.918461121847056,
          35.1707655136665
        ],
        [
          25.918527816176443,
          35.170847038579595
        ],
        [
          25.918541608473156,
          35.170863949424295
        ],
        [
          25.918572275802298,
          35.17094018502412
        ],
        [
          25.918582631990624,
          35.17101178390856
        ],
        [
          25.918579723567984,
          35.17112163812675
        ],
        [
          25.918562823299915,
          35.171173384075395
        ],
        [
          25.918474281364666,
          35.17123212503649
        ],
        [
          25.918368720681286,
          35.171258138998226
        ],
        [
          25.918271210063704,
          35.17131368617299
        ],
        [
          25.91818593177768,
          35.17138517716464
        ],
        [
          25.918174215081894,
          35.171437922808956
        ],
        [
          25.91819355722588,
          35.17146673632794
        ],
        [
          25.918291085611646,
          35.171505400349275
        ],
        [
          25.918483899142053,
          35.17152930209303
        ],
        [
          25.918677482432088,
          35.17154390542237
        ],
        [
          25.918819733186428,
          35.17151866215626
        ],
        [
          25.918964423466466,
          35.17143838584986
        ],
        [
          25.919044677198322,
          35.1713353297299
        ],
        [
          25.919125252994906,
          35.171199271923996
        ],
        [
          25.919204583755477,
          35.17101959904092
        ],
        [
          25.91928098571167,
          35.171000267147136
        ],
        [
          25.919380418288153,
          35.17106856092937
        ],
        [
          25.919440785702452,
          35.17117047034644
        ],
        [
          25.91941443321393,
          35.17135254924693
        ],
        [
          25.919358261081317,
          35.17146180520202
        ],
        [
          25.919307947447297,
          35.17154004530491
        ],
        [
          25.91933194720813,
          35.17155679427433
        ],
        [
          25.91948146115175,
          35.17146688453442
        ]
      ]
    ]
  }
}