{
  "type": "Feature",
  "properties": {
    "source_file": "parcel_09_boundary.csv"
  },
  "geometry": {
    "type": "Polygon",
    "coordinates": [
      [
        [
          25.924321439350866,
          35.148082425274545
        ],
        [
          25.924280282687313,
          35.14808262830296
        ],
        [
          25.92412805258112,
          35.1480831532126
        ],
        [
          25.923999221115785,
          35.14818238627537
        ],
        [
          25.923912219295747,
          35.14824940071592
        ],
        [
          25.923877158529727,
          35.14826609525053
        ],
        [
          25.923476084484832,
          35.14845746193774
        ],
        [
          25.923304689341172,
          35.148539158891936
        ],
        [
          25.923392077819813,
          35.1485724808978
        ],
        [
          25.923424894020602,
          35.148558346472214
        ],
        [
          25.9242605015525,
          35.14819816020295
        ],
        [
          25.924279516803722,
          35.14816197657883
        ],
        [
          25.924321439350866,
          35.148082425274545
        ]
      ]
    ]
  }
}