{
  "type": "Feature",
  "properties": {
    "source_file": "parcel_08_boundary.csv"
  },
  "geometry": {
    "type": "Polygon",
    "coordinates": [
      [
        [
          25.91791387410767,
          35.16934315961618
        ],
        [
          25.91795209335668,
          35.16925483399888
        ],
        [
          25.91829381784495,
          35.16887374770015
        ],
        [
          25.918250164174395,
          35.16884288509657
        ],
        [
          25.918066460943074,
          35.1689821985385
        ],
        [
          25.917906542880228,
          35.169110496794275
        ],
        [
          25.917766608700774,
          35.16919213896832
        ],
        [
          25.917644113593774,
          35.16932913017101
        ],
        [
          25.91764232068647,
          35.16934628791763
        ],
        [
          25.917639885895134,
          35.16935948903003
        ],
        [
          25.917641409141737,
          35.16941500008518
        ],
        [
          25.91764256200925,
          35.169454739966405
        ],
        [
          25.91769139838306,
          35.16953330260216
        ],
        [
          25.91772858997728,
          35.16963494886171
        ],
        [
          25.91795297417088,
          35.16969432323148
        ],
        [
          25.91799423368498,
          35.16967933521309
        ],
        [
          25.91804049732877,
          35.16966237468016
        ],
        [
          25.91792243576876,
          35.16945057834326
        ],
        [
          25.91791387410767,
          35.16934315961618
        ]
      ]
    ]
  }
}