{
  "type": "Feature",
  "properties": {
    "source_file": "parcel_03_boundary.csv"
  },
  "geometry": {
    "type": "Polygon",
    "coordinates": [
      [
        [
          25.923553359692267,
          35.16847126514768
        ],
        [
          25.923560471517437,
          35.168773169460096
        ],
        [
          25.923982777661625,
          35.16869596022538
        ],
        [
          25.924017050136364,
          35.168626808230584
        ],
        [
          25.924027051735372,
          35.168608618450655
        ],
        [
          25.92401712402432,
          35.16859732656728
        ],
        [
          25.92401467868892,
          35.16855877933297
        ],
        [
          25.92402635582904,
          35.16850918920091
        ],
        [
          25.924030932065655,
          35.168423830430356
        ],
        [
          25.924044571064506,
          35.16830839641138
        ],
        [
          25.923553359692267,
          35.16847126514768
        ]
      ]
    ]
  }
}