{
  "type": "Feature",
  "properties": {
    "source_file": "parcel_07_boundary.csv"
  },
  "geometry": {
    "type": "Polygon",
    "coordinates": [
      [
        [
          25.918914279900292,
          35.16914123311409
        ],
        [
          25.918853964116217,
          35.16886388191355
        ],
        [
          25.91869552530566,
          35.16875135509969
        ],
        [
          25.918449356402697,
          35.16878807124656
        ],
        [
          25.918373637721178,
          35.16880369543296
        ],
        [
          25.91835981110588,
          35.168860080710175
        ],
        [
          25.918208733367,
          35.16902348972893
        ],
        [
          25.918044573271732,
          35.16921424227048
        ],
        [
          25.91797101409022,
          35.16930312761866
        ],
        [
          25.917963956254013,
          35.16933452300907
        ],
        [
          25.91795821866068,
          35.16941277782972
        ],
        [
          25.917965893615364,
          35.16945439781082
        ],
        [
          25.91800638848902,
          35.16952371635531
        ],
        [
          25.91804228311823,
          35.16957480638142
        ],
        [
          25.918068334960978,
          35.16964155886341
        ],
        [
          25.918090126950208,
          35.16963914015741
        ],
        [
          25.91815005619446,
          35.1696430592899
        ],
        [
          25.91834386859461,
          35.169648914616154
        ],
        [
          25.9185064538716,
          35.16964814213242
        ],
        [
          25.91866630204874,
          35.16965237129171
        ],
        [
          25.918960057822133,
          35.169673591191184
        ],
        [
          25.91897019568204,
          35.16962844346357
        ],
        [
          25.918981364805113,
          35.16959914658198
        ],
        [
          25.919038647284477,
          35.169602566287665
        ],
        [
          25.919073258078132,
          35.169613016671406
        ],
        [
          25.919177721879386,
          35.169647873780264
        ],
        [
          25.91930914786508,
          35.169694744802314
        ],
        [
          25.91936808557842,
          35.169703186767734
        ],
        [
          25.919400699729632,
          35.16971276715666
        ],
        [
          25.919463393160985,
          35.169731517313046
        ],
        [
          25.919511186405252,
          35.16983101154966
        ],
        [
          25.91952759412173,
          35.16985175747056
        ],
        [
          25.919858822044343,
          35.16986498854693
        ],
        [
          25.919754148755985,
          35.169783886118275
        ],
        [
          25.919454662697813,
          35.16955161721389
        ],
        [
          25.918914279900292,
          35.16914123311409
        ]
      ]
    ]
  }
}