{
  "type": "Feature",
  "properties": {
    "source_file": "parcel_01_boundary.csv"
  },
  "geometry": {
    "type": "Polygon",
    "coordinates": [
      [
        [
          25.923050013970947,
          35.16861313831532
        ],
        [
          25.92338981606731,
          35.16852912734129
        ],
        [
          25.923425542732268,
          35.16840982655499
        ],
        [
          25.923426267763602,
          35.168277468356884
        ],
        [
          25.923396738294873,
          35.168212395091146
        ],
        [
          25.923546566405783,
          35.168182878923474
        ],
        [
          25.924006401772385,
          35.168030425700934
        ],
        [
          25.924009203758896,
          35.16800955551656
        ],
        [
          25.924017779213138,
          35.16799607642369
        ],
        [
          25.92399714163529,
          35.16796358809103
        ],
        [
          25.92398349526773,
          35.16795289620748
        ],
        [
          25.923943055299194,
          35.16792802497063
        ],
        [
          25.923910025754225,
          35.16791944409857
        ],
        [
          25.923873368262306,
          35.16789667645379
        ],
        [
          25.923859779906014,
          35.16789310583291
        ],
        [
          25.923727175801055,
          35.167884754388176
        ],
        [
          25.923770237432247,
          35.167867121323255
        ],
        [
          25.923858097164356,
          35.16779838027468
        ],
        [
          25.92381268119084,
          35.167762679355576
        ],
        [
          25.923784446730767,
          35.167691996035686
        ],
        [
          25.923736242409824,
          35.167607836301485
        ],
        [
          25.923716534170033,
          35.1675635229241
        ],
        [
          25.923400273622672,
          35.16769593441471
        ],
        [
          25.923279911817964,
          35.16778782007088
        ],
        [
          25.92301134610143,
          35.16785230805763
        ],
        [
          25.922771171113595,
          35.16791490222882
        ],
        [
          25.92266181875428,
          35.16859099350439
        ],
        [
          25.923050013970947,
          35.16861313831532
        ]
      ]
    ]
  }
}